OBJECT_NAME,OBJECT_ID,EPOCH,MEAN_MOTION,ECCENTRICITY,INCLINATION,RA_OF_ASC_NODE,ARG_OF_PERICENTER,MEAN_ANOMALY,EPHEMERIS_TYPE,CLASSIFICATION_TYPE,NORAD_CAT_ID,ELEMENT_SET_NO,REV_AT_EPOCH,BSTAR,MEAN_MOTION_DOT,MEAN_MOTION_DDOT
STARLINK-4699,2022-107S,2026-06-27T03:42:50.256576,15.08830783,.0001309,53.1594,122.2340,91.2586,268.8555,0,U,53716,999,21093,.12103E-4,-.95E-6,0
STARLINK-4695,2022-107U,2026-06-27T03:28:25.775328,15.08827623,.0001283,53.1601,122.8683,90.4886,269.6252,0,U,53718,999,21092,-.47623E-5,-.364E-5,0
STARLINK-4644,2022-107V,2026-06-27T01:55:31.041696,15.08833432,.0001142,53.1604,92.5194,84.5018,275.6104,0,U,53719,999,21135,.39005E-4,.333E-5,0
STARLINK-4642,2022-107W,2026-06-27T04:00:03.000096,15.20565728,.0002398,53.1606,121.9659,86.4661,91.9328,0,U,53720,999,569,.3864E-2,.86368E-3,0
STARLINK-4707,2022-107X,2026-06-27T04:03:50.740992,15.09000177,.0001241,53.1604,122.3265,96.2345,263.8788,0,U,53721,999,21094,.13962E-2,.22101E-3,0
STARLINK-4700,2022-107Y,2026-06-27T02:37:53.691744,15.09705821,.0001009,53.1610,122.6631,96.4598,263.6509,0,U,53722,999,21092,.65123E-2,.107466E-2,0
STARLINK-4705,2022-107Z,2026-06-27T05:12:32.904864,15.09100708,.0001668,53.1610,121.9214,88.7554,271.3628,0,U,53723,999,21109,.22481E-2,.35932E-3,0
STARLINK-4663,2022-107AA,2026-06-27T04:00:03.000096,15.17163347,.0001885,53.1598,122.1097,71.0601,33.9651,0,U,53724,999,584,.20677E-2,.41472E-3,0
STARLINK-4697,2022-107AC,2026-06-27T02:33:03.532896,15.09442792,.0001371,53.1607,122.6450,115.6378,244.4756,0,U,53726,999,21093,.47418E-2,.77277E-3,0
STARLINK-4701,2022-107AD,2026-06-27T04:00:03.000096,15.11401562,.0001836,53.1602,122.4874,118.9340,151.1205,0,U,53727,999,583,.26662E-2,.45536E-3,0
STARLINK-4640,2022-107AE,2026-06-27T04:00:03.000096,15.24057773,.0002039,53.1609,121.9349,92.4049,104.6510,0,U,53728,999,568,.37552E-2,.93135E-3,0
STARLINK-4651,2022-107AF,2026-06-27T02:56:10.424832,15.09984810,.0001537,53.1612,122.7458,87.8851,272.2316,0,U,53729,999,21110,-.10964E-3,-.2092E-4,0
STARLINK-4641,2022-107AG,2026-06-27T04:00:03.000096,15.19808967,.0001334,53.1598,122.1778,98.4946,333.3005,0,U,53730,999,583,.33488E-1,.785337E-2,0
STARLINK-4636,2022-107AH,2026-06-27T02:59:10.529088,15.17092597,.0005749,53.2128,118.0092,99.9722,260.1922,0,U,53731,999,21117,.17428E-2,.34811E-3,0
STARLINK-4661,2022-107AJ,2026-06-27T04:00:03.000096,15.21469435,.0001278,53.1591,122.1678,98.4224,338.7926,0,U,53732,999,583,.21889E-2,.49844E-3,0
STARLINK-4574,2022-107AK,2026-06-27T04:00:03.000096,15.25638762,.0001919,53.1600,122.0613,83.3740,50.6558,0,U,53733,999,583,.4241E-1,.1189283E-1,0
STARLINK-4616,2022-107AL,2026-06-27T01:25:07.891968,15.08836760,.0001554,53.1603,123.0615,98.5153,261.6015,0,U,53734,999,21109,.12688E-3,.1732E-4,0
STARLINK-4618,2022-107AM,2026-06-27T04:00:03.000096,15.21168880,.0002228,53.1594,131.9051,96.6289,107.6346,0,U,53735,999,573,.32067E-2,.72761E-3,0
STARLINK-4652,2022-107AN,2026-06-27T04:00:03.000096,15.20586367,.0000969,53.1589,122.2850,81.3525,295.7206,0,U,53736,999,583,.33271E-2,.7424E-3,0
STARLINK-4662,2022-107AQ,2026-06-27T04:00:03.000096,15.20433898,.0002523,53.1603,131.9951,78.0683,78.4411,0,U,53738,999,584,.34808E-2,.77375E-3,0
STARLINK-4607,2022-107AS,2026-06-27T04:00:03.000096,15.21756109,.0001189,53.1595,131.8791,94.0644,124.1584,0,U,53740,999,573,.83274E-3,.18839E-3,0
STARLINK-4637,2022-107AU,2026-06-27T04:00:03.000096,15.20222112,.0002063,53.1609,132.0280,72.1015,69.1506,0,U,53742,999,583,.19305E-2,.42297E-3,0
STARLINK-4645,2022-107AV,2026-06-27T04:00:03.000096,15.22662340,.0001631,53.1610,132.1656,56.9376,15.6536,0,U,53743,999,578,.293E-2,.69414E-3,0
STARLINK-4670,2022-107AW,2026-06-27T03:36:11.811744,15.08832308,.0001459,53.1601,132.2003,97.3426,262.7732,0,U,53744,999,21112,.52707E-5,-.204E-5,0
STARLINK-4656,2022-107AX,2026-06-27T04:00:03.000096,15.22934537,.0001535,53.1608,132.1423,68.5206,15.9250,0,U,53745,999,583,.44474E-1,.1147586E-1,0
STARLINK-4589,2022-107AY,2026-06-27T04:00:03.000096,15.22300114,.000214,53.1612,132.0872,60.7064,51.2545,0,U,53746,999,583,.29526E-2,.69206E-3,0
STARLINK-4612,2022-107BC,2026-06-27T04:00:03.000096,15.24108251,.0001934,53.1612,132.0532,80.8373,50.1837,0,U,53750,999,578,.40159E-1,.1066416E-1,0
STARLINK-4718,2022-111A,2026-06-27T05:30:11.881152,15.08822043,.000125,53.1587,152.1439,79.3152,280.7980,0,U,53773,999,21038,-.15498E-4,-.534E-5,0
STARLINK-4719,2022-111B,2026-06-27T05:24:52.602912,15.08829240,.0001173,53.1592,152.1211,81.3943,278.7181,0,U,53774,999,21024,.32946E-4,.236E-5,0
STARLINK-4722,2022-111C,2026-06-27T04:00:03.000096,15.16986775,.0001659,53.1596,142.5921,97.5894,213.6555,0,U,53775,999,583,.10706E-2,.21152E-3,0
STARLINK-4664,2022-111E,2026-06-27T04:22:39.568224,15.08833156,.0001526,53.1591,142.5881,93.8569,266.2597,0,U,53777,999,21022,.27193E-7,-.288E-5,0
STARLINK-4709,2022-111F,2026-06-27T05:01:40.774080,15.08834787,.0001386,53.1587,147.0368,83.1518,276.9631,0,U,53778,999,21016,.29805E-5,-.241E-5,0
STARLINK-4706,2022-111G,2026-06-27T04:00:03.000096,15.17627763,.0000841,53.1594,142.4716,74.7456,298.2125,0,U,53779,999,578,.29056E-2,.59337E-3,0
STARLINK-4678,2022-111H,2026-06-27T04:27:55.914048,15.08850974,.0001318,53.1593,142.6123,75.6349,284.4789,0,U,53780,999,21022,.13454E-3,.1855E-4,0
STARLINK-4462,2022-111J,2026-06-27T04:01:27.087168,15.08832211,.0001397,53.1588,142.4982,91.8531,268.2620,0,U,53781,999,21022,-.7061E-4,-.1411E-4,0
STARLINK-4679,2022-111K,2026-06-27T01:10:00.894144,16.19154400,.0004977,53.2077,104.7570,243.2906,116.7624,0,U,53782,999,21073,.66864E-3,.1243427E-1,.11776E-4
STARLINK-4536,2022-111L,2026-06-27T03:50:50.015040,15.08835498,.0001407,53.1600,142.4518,87.2980,272.8173,0,U,53783,999,21022,.81824E-4,.1014E-4,0
STARLINK-4687,2022-111M,2026-06-27T04:00:03.000096,15.18042610,.0001422,53.1589,142.3716,50.1598,13.5950,0,U,53784,999,573,.30659E-2,.63418E-3,0
STARLINK-4743,2022-111Q,2026-06-27T05:13:44.589216,15.09936005,.0001311,53.1612,142.1006,80.4045,279.7095,0,U,53787,999,21023,.78694E-2,.131186E-2,0
STARLINK-4666,2022-111S,2026-06-27T03:24:16.634016,15.08861159,.0001214,53.1571,142.3369,81.2517,278.8611,0,U,53789,999,21021,.90351E-3,.14129E-3,0
STARLINK-4734,2022-111T,2026-06-27T04:00:03.000096,15.13800321,.0001933,53.1591,142.3396,48.4590,29.5364,0,U,53790,999,568,.30066E-2,.55033E-3,0
STARLINK-4739,2022-111V,2026-06-27T04:00:03.000096,15.15973337,.0002008,53.1601,142.7552,106.2187,114.6407,0,U,53792,999,568,.33424E-2,.65195E-3,0
STARLINK-4728,2022-111W,2026-06-27T04:00:03.000096,15.12329864,.0002485,53.1590,142.2831,58.9933,45.2251,0,U,53793,999,579,.31834E-2,.55936E-3,0
STARLINK-4730,2022-111X,2026-06-27T04:00:03.000096,15.14128828,.0002146,53.1590,142.3009,57.2499,39.3392,0,U,53794,999,584,.30194E-2,.5579E-3,0
STARLINK-4742,2022-111Y,2026-06-27T04:54:22.670784,15.08829405,.0001355,53.1595,142.0161,86.5420,273.5726,0,U,53795,999,21022,.16541E-4,-.25E-6,0
STARLINK-4723,2022-111AA,2026-06-27T04:36:47.210976,15.09837396,.0001004,53.1604,141.9417,70.5983,289.5117,0,U,53797,999,21021,.72105E-2,.119657E-2,0
STARLINK-4712,2022-111AB,2026-06-27T04:00:03.000096,15.12659709,.0002288,53.1591,142.0794,92.7414,115.3327,0,U,53798,999,583,.14765E-2,.25915E-3,0
STARLINK-4710,2022-111AC,2026-06-27T04:00:03.000096,15.22352145,.0001594,53.1594,132.0892,95.6298,121.0284,0,U,53799,999,583,.48541E-1,.1239587E-1,0
STARLINK-4720,2022-111AD,2026-06-26T23:35:02.954976,15.61688655,.0003451,53.2074,72.0431,110.3597,249.7789,0,U,53800,999,21118,.5137E-3,.44851E-3,0
STARLINK-4715,2022-111AE,2026-06-27T04:00:03.000096,15.19291826,.0001527,53.1586,131.9853,119.5581,150.8832,0,U,53801,999,583,.35188E-2,.75642E-3,0
STARLINK-4726,2022-111AF,2026-06-27T04:00:03.000096,15.22223954,.0000897,53.1591,131.9652,129.4975,150.8891,0,U,53802,999,584,.50095E-1,.1278191E-1,0
STARLINK-4727,2022-111AG,2026-06-27T02:26:43.228608,15.08829800,.0002151,53.1619,117.8419,73.3889,286.7338,0,U,53803,999,21054,-.43383E-4,-.979E-5,0
STARLINK-4729,2022-111AH,2026-06-27T03:30:19.147680,15.08818057,.0001241,53.1598,127.3807,80.0166,280.0966,0,U,53804,999,21041,.12296E-3,.1668E-4,0
STARLINK-4763,2022-111AJ,2026-06-27T02:38:42.760896,15.08834854,.0001232,53.1597,117.8886,86.0452,274.0680,0,U,53805,999,21054,.39911E-5,-.224E-5,0
STARLINK-4768,2022-111AK,2026-06-27T03:35:34.816128,15.08833078,.0001405,53.1606,117.4255,92.5406,267.5746,0,U,53806,999,21055,-.1048E-4,-.455E-5,0
STARLINK-4738,2022-114B,2026-06-27T04:00:03.000096,15.14608818,.0001214,53.1594,172.3159,138.2262,143.0415,0,U,53819,999,573,.26165E-2,.48917E-3,0
STARLINK-4758,2022-114C,2026-06-27T05:16:59.549088,15.08829174,.0000994,53.1584,172.4814,77.2465,282.8637,0,U,53820,999,20936,.62557E-4,.708E-5,0
STARLINK-4748,2022-114F,2026-06-27T03:02:29.186880,15.08836390,.0001798,53.1616,127.6686,94.7854,265.3343,0,U,53823,999,20998,.39617E-4,.342E-5,0
STARLINK-4757,2022-114G,2026-06-27T05:00:56.947680,15.08830952,.000135,53.1584,171.7181,75.3782,284.7359,0,U,53824,999,20928,.15691E-4,-.38E-6,0
STARLINK-4751,2022-114H,2026-06-27T05:06:22.745664,15.08835194,.000121,53.1580,172.4356,84.7989,275.3141,0,U,53825,999,20936,-.3355E-4,-.822E-5,0
STARLINK-4756,2022-114J,2026-06-27T04:39:51.172992,15.08839849,.000072,53.1601,172.3251,60.6152,299.4911,0,U,53826,999,20936,.73788E-5,-.17E-5,0
STARLINK-4764,2022-114K,2026-06-27T04:55:46.013088,15.08837454,.0001192,53.1592,172.3892,90.8753,269.2375,0,U,53827,999,20936,-.37033E-4,-.877E-5,0
STARLINK-4760,2022-114L,2026-06-27T02:59:08.937600,15.08829671,.0000974,53.1586,172.5985,92.9951,267.1152,0,U,53828,999,20935,.61313E-4,.688E-5,0
STARLINK-4759,2022-114M,2026-06-27T04:50:27.503808,15.08832366,.0001105,53.1585,172.3679,75.2696,284.8417,0,U,53829,999,20936,-.22903E-4,-.652E-5,0
STARLINK-4761,2022-114N,2026-06-27T04:23:55.722048,15.08833676,.0001235,53.1593,172.2568,83.0404,277.0727,0,U,53830,999,20936,.25054E-5,-.248E-5,0
